NORAD_CAT_ID,OBJECT_NAME,OBJECT_TYPE,EPOCH,MEAN_MOTION,ECCENTRICITY,INCLINATION,RA_OF_ASC_NODE,ARG_OF_PERICENTER,MEAN_ANOMALY,BSTAR,MEAN_MOTION_DOT,MEAN_MOTION_DDOT,TLE_LINE0,TLE_LINE1,TLE_LINE2,SEMIMAJOR_AXIS,PERIOD,APOGEE,PERIGEE,DECAYED
52864.0,STARLINK-4267,PAYLOAD,2022-07-05 06:00:00,15.73157629,0.0001450999999999,53.2156,317.1328,40.2871,224.8365,0.00065364,0.00091956,0.0,0 STARLINK-4267,1 52864U 22062AL  22186.25001157  .00091956  00000-0  65364-3 0  9994,2 52864  53.2156 317.1328 0001451  40.2871 224.8365 15.73157629  3297,6728.016,91.536,350.857,348.905,0.0
52864.0,STARLINK-4267,PAYLOAD,2022-07-05 14:00:01,15.73244808,0.0001544,53.2158,315.4849,33.9168,320.0998,-0.00069944,-0.00097838,0.0,0 STARLINK-4267,1 52864U 22062AL  22186.58334491 -.00097838  00000-0 -69944-3 0  9995,2 52864  53.2158 315.4849 0001544  33.9168 320.0998 15.73244808  3342,6727.767,91.531,350.671,348.594,0.0
52864.0,STARLINK-4267,PAYLOAD,2022-07-05 22:00:00,15.73194363,0.0001709,53.216,313.8352,30.6165,52.3375,-0.00026801,-0.00038056,0.0,0 STARLINK-4267,1 52864U 22062AL  22186.91667824 -.00038056  00000-0 -26801-3 0  9993,2 52864  53.2160 313.8352 0001709  30.6165  52.3375 15.73194363  1308,6727.911,91.534,350.926,348.626,0.0
52864.0,STARLINK-4267,PAYLOAD,2022-07-06 06:00:00,15.73166765,0.0001438,53.2159,312.1842,30.5966,141.2771,0.00055021,0.00077201,0.0,0 STARLINK-4267,1 52864U 22062AL  22187.25001157  .00077201  00000-0  55021-3 0  9991,2 52864  53.2159 312.1842 0001438  30.5966 141.2771 15.73166765  3449,6727.99,91.535,350.82199999999995,348.88699999999994,0.0
52864.0,STARLINK-4267,PAYLOAD,2022-07-06 14:00:01,15.7325019,0.000175,53.2161,310.5365,31.6901,229.101,-0.00067819,-0.00094942,0.0,0 STARLINK-4267,1 52864U 22062AL  22187.58334491 -.00094942  00000-0 -67819-3 0  9998,2 52864  53.2161 310.5365 0001750  31.6901 229.1010 15.73250190  1303,6727.752,91.53,350.7940000000001,348.44,0.0
52864.0,STARLINK-4267,PAYLOAD,2022-07-06 22:00:00,15.73222405,0.0001892,53.2161,308.8863,32.0417,317.6898,-0.00066946,-0.00093633,0.0,0 STARLINK-4267,1 52864U 22062AL  22187.91667824 -.00093633  00000-0 -66946-3 0  9990,2 52864  53.2161 308.8863 0001892  32.0417 317.6898 15.73222405  3554,6727.831,91.532,350.969,348.423,0.0
52864.0,STARLINK-4267,PAYLOAD,2022-07-07 04:08:34,15.73204924,0.0001965,53.2158,307.6192,34.2214,325.8933,9.6833e-05,0.00012993,0.0,0 STARLINK-4267,1 52864U 22062AL  22188.17262669  .00012993  00000-0  96833-4 0  9994,2 52864  53.2158 307.6192 0001965  34.2214 325.8933 15.73204924  3593,6727.880999999999,91.533,351.0680000000001,348.4240000000001,0.0
52864.0,STARLINK-4267,PAYLOAD,2022-07-07 14:00:01,15.73226406,0.0001827,53.2156,305.5878,33.3643,134.21,-1.8839e-05,-3.267e-05,0.0,0 STARLINK-4267,1 52864U 22062AL  22188.58334491 -.00003267  00000-0 -18839-4 0  9998,2 52864  53.2156 305.5878 0001827  33.3643 134.2100 15.73226406  1306,6727.82,91.532,350.914,348.456,0.0
52864.0,STARLINK-4267,PAYLOAD,2022-07-07 20:54:51,15.73260696,0.000199,53.2158,304.1609,37.5201,322.5957,0.00034769,0.00048587,0.0,0 STARLINK-4267,1 52864U 22062AL  22188.87142401  .00048587  00000-0  34769-3 0  9999,2 52864  53.2158 304.1609 0001990  37.5201 322.5957 15.73260696  3215,6727.722,91.53,350.926,348.24800000000016,0.0
52864.0,STARLINK-4267,PAYLOAD,2022-07-08 06:00:02,15.73217839,0.0001738,53.2158,302.2864,30.3822,315.2086,0.00022022,0.00030422,0.0,0 STARLINK-4267,1 52864U 22062AL  22189.25002315  .00030422  00000-0  22022-3 0  9999,2 52864  53.2158 302.2864 0001738  30.3822 315.2086 15.73217839  3760,6727.844,91.532,350.879,348.54,0.0
52864.0,STARLINK-4267,PAYLOAD,2022-07-08 14:00:01,15.7327647,0.0002078,53.2158,300.6386,29.8603,44.737,0.00022934,0.00031794,0.0,0 STARLINK-4267,1 52864U 22062AL  22189.58334491  .00031794  00000-0  22934-3 0  9993,2 52864  53.2158 300.6386 0002078  29.8603  44.7370 15.73276470  1303,6727.677,91.529,350.94,348.144,0.0
52864.0,STARLINK-4267,PAYLOAD,2022-07-08 22:00:01,15.7332989,0.0002078,53.2153,298.9884,29.1726,134.4839,-0.00089211,-0.0012469,0.0,0 STARLINK-4267,1 52864U 22062AL  22189.91668981 -.00124690  00000-0 -89211-3 0  9995,2 52864  53.2153 298.9884 0002078  29.1726 134.4839 15.73329890  3864,6727.525,91.526,350.788,347.992,0.0
52864.0,STARLINK-4267,PAYLOAD,2022-07-09 06:00:00,15.73239377,0.0001856,53.2156,297.3372,32.6743,219.9313,-0.0012185,-0.00168546,0.0,0 STARLINK-4267,1 52864U 22062AL  22190.25001157 -.00168546  00000-0 -12185-2 0  9993,2 52864  53.2156 297.3372 0001856  32.6743 219.9313 15.73239377  3926,6727.783,91.531,350.897,348.399,0.0
52864.0,STARLINK-4267,PAYLOAD,2022-07-09 14:00:01,15.73101026,0.0002137,53.2158,295.6897,29.9194,311.6009,-0.001233,-0.00169527,0.0,0 STARLINK-4267,1 52864U 22062AL  22190.58334491 -.00169527  00000-0 -12330-2 0  9991,2 52864  53.2158 295.6897 0002137  29.9194 311.6009 15.73101026  1304,6728.177,91.539,351.48,348.605,0.0
52864.0,STARLINK-4267,PAYLOAD,2022-07-09 20:00:01,15.73172966,0.0002157,53.2156,294.453,24.2541,293.7735,0.00031528,0.00043809,0.0,0 STARLINK-4267,1 52864U 22062AL  22190.83334491  .00043809  00000-0  31528-3 0  9992,2 52864  53.2156 294.4530 0002157  24.2541 293.7735 15.73172966  1306,6727.972,91.535,351.288,348.386,0.0
52864.0,STARLINK-4267,PAYLOAD,2022-07-10 14:00:01,15.73165025,0.0002447,53.2163,290.7414,32.416,215.6798,0.00021342,0.00029394,0.0,0 STARLINK-4267,1 52864U 22062AL  22191.58334491  .00029394  00000-0  21342-3 0  9991,2 52864  53.2163 290.7414 0002447  32.4160 215.6798 15.73165025  4138,6727.995,91.535,351.506,348.214,0.0
52864.0,STARLINK-4267,PAYLOAD,2022-07-10 22:00:00,15.73239618,0.000231,53.2159,289.0912,28.9565,308.0513,-0.00069861,-0.00097716,0.0,0 STARLINK-4267,1 52864U 22062AL  22191.91667824 -.00097716  00000-0 -69861-3 0  9990,2 52864  53.2159 289.0912 0002310  28.9565 308.0513 15.73239618  1303,6727.781999999997,91.531,351.201,348.093,0.0
52864.0,STARLINK-4267,PAYLOAD,2022-07-11 14:00:01,15.73226065,0.0002362,53.2161,285.7933,25.2286,129.6329,-0.00026767,-0.00038065,0.0,0 STARLINK-4267,1 52864U 22062AL  22192.58334491 -.00038065  00000-0 -26767-3 0  9995,2 52864  53.2161 285.7933 0002362  25.2286 129.6329 15.73226065  1303,6727.821,91.532,351.275,348.097,0.0
52864.0,STARLINK-4267,PAYLOAD,2022-07-11 22:00:00,15.73199673,0.0002297,53.2161,284.1428,22.115,221.7002,3.2329e-06,-1.68e-06,0.0,0 STARLINK-4267,1 52864U 22062AL  22192.91667824 -.00000168  00000-0  32329-5 0  9996,2 52864  53.2161 284.1428 0002297  22.1150 221.7002 15.73199673  4341,6727.896,91.533,351.307,348.216,0.0
52864.0,STARLINK-4267,PAYLOAD,2022-07-12 14:00:01,15.73193235,0.0002616,53.2165,280.8449,26.7076,35.0099,0.00037779,0.00052723,0.0,0 STARLINK-4267,1 52864U 22062AL  22193.58334491  .00052723  00000-0  37779-3 0  9996,2 52864  53.2165 280.8449 0002616  26.7076  35.0099 15.73193235  4444,6727.9140000000025,91.534,351.539,348.019,0.0
52864.0,STARLINK-4267,PAYLOAD,2022-07-12 22:00:00,15.73262137,0.0002519,53.216,279.1942,24.0439,126.6421,-0.00034173,-0.00048442,0.0,0 STARLINK-4267,1 52864U 22062AL  22193.91667824 -.00048442  00000-0 -34173-3 0  9992,2 52864  53.2160 279.1942 0002519  24.0439 126.6421 15.73262137  1300,6727.718000000003,91.53,351.278,347.88800000000015,0.0
52864.0,STARLINK-4267,PAYLOAD,2022-07-13 04:00:00,15.73237865,0.0002374,53.216,277.9561,26.372,101.0411,-3.5994e-05,-5.679e-05,0.0,0 STARLINK-4267,1 52864U 22062AL  22194.16667824 -.00005679  00000-0 -35994-4 0  9998,2 52864  53.2160 277.9561 0002374  26.3720 101.0411 15.73237865  4534,6727.7869999999975,91.531,351.249,348.055,0.0
52864.0,STARLINK-4267,PAYLOAD,2022-07-13 14:00:01,15.73203339,0.0002589,53.2159,275.8967,22.6423,305.9692,-0.00075118,-0.00104778,0.0,0 STARLINK-4267,1 52864U 22062AL  22194.58334491 -.00104778  00000-0 -75118-3 0  9996,2 52864  53.2159 275.8967 0002589  22.6423 305.9692 15.73203339  4609,6727.886,91.533,351.49300000000005,348.009,0.0
52864.0,STARLINK-4267,PAYLOAD,2022-07-13 22:00:00,15.73116634,0.0002455,53.2159,274.246,17.1892,40.3023,0.00013423,0.00018193,0.0,0 STARLINK-4267,1 52864U 22062AL  22194.91667824  .00018193  00000-0  13423-3 0  9996,2 52864  53.2159 274.2460 0002455  17.1892  40.3023 15.73116634  1304,6728.1330000000025,91.538,351.65,348.346,0.0
52864.0,STARLINK-4267,PAYLOAD,2022-07-14 08:00:01,15.73160379,0.0002491,53.2161,272.1843,20.014,238.5149,0.00014824,0.000202,0.0,0 STARLINK-4267,1 52864U 22062AL  22195.33334491  .00020200  00000-0  14824-3 0  9992,2 52864  53.2161 272.1843 0002491  20.0140 238.5149 15.73160379  4722,6728.0080000000025,91.535,351.5490000000001,348.19699999999995,0.0
52864.0,STARLINK-4267,PAYLOAD,2022-07-14 14:00:01,15.73150684,0.0002776,53.2159,270.9488,19.1026,216.0935,0.00046689,0.00065284,0.0,0 STARLINK-4267,1 52864U 22062AL  22195.58334491  .00065284  00000-0  46689-3 0  9994,2 52864  53.2159 270.9488 0002776  19.1026 216.0935 15.73150684  1301,6728.036,91.536,351.76800000000014,348.033,0.0
52864.0,STARLINK-4267,PAYLOAD,2022-07-14 22:00:00,15.73232067,0.0002605,53.2155,269.2979,17.6573,306.4385,-0.00029978,-0.00042547,0.0,0 STARLINK-4267,1 52864U 22062AL  22195.91667824 -.00042547  00000-0 -29978-3 0  9991,2 52864  53.2155 269.2979 0002605  17.6573 306.4385 15.73232067  1303,6727.804,91.531,351.421,347.916,0.0
52864.0,STARLINK-4267,PAYLOAD,2022-07-15 14:00:01,15.73206279,0.0002777,53.2151,266.0006,13.8871,128.09,0.00024347,0.00033699,0.0,0 STARLINK-4267,1 52864U 22062AL  22196.58334491  .00033699  00000-0  24347-3 0  9997,2 52864  53.2151 266.0006 0002777  13.8871 128.0900 15.73206279  4911,6727.877,91.533,351.611,347.874,0.0
52864.0,STARLINK-4267,PAYLOAD,2022-07-15 22:00:00,15.73209708,0.0002646,53.2151,264.3492,10.9871,219.9551,-3.8703e-05,-6.053e-05,0.0,0 STARLINK-4267,1 52864U 22062AL  22196.91667824 -.00006053  00000-0 -38703-4 0  9991,2 52864  53.2151 264.3492 0002646  10.9871 219.9551 15.73209708  1306,6727.8669999999975,91.533,351.51300000000015,347.952,0.0
